ONEWEB-0706             
1 61611U 24188T   26004.19627212 -.00000512  00000+0 -15033-2 0  9993
2 61611  87.8783  68.9602 0001420 123.4748 236.6516 13.10371055 61906
ONEWEB-0707             
1 61612U 24188U   26004.20290951 -.00000513  00000+0 -15062-2 0  9995
2 61612  87.8799  68.9391 0001385 120.5118 239.6146 13.10372757 61843
ONEWEB-0708             
1 61613U 24188V   26004.14483135 -.00000022  00000+0 -98627-4 0  9992
2 61613  87.8791  68.9836 0002114 116.2106 243.9239 13.10376111 61816
